NORAD_CAT_ID,OBJECT_NAME,OBJECT_TYPE,EPOCH,MEAN_MOTION,ECCENTRICITY,INCLINATION,RA_OF_ASC_NODE,ARG_OF_PERICENTER,MEAN_ANOMALY,BSTAR,MEAN_MOTION_DOT,MEAN_MOTION_DDOT,TLE_LINE0,TLE_LINE1,TLE_LINE2,SEMIMAJOR_AXIS,PERIOD,APOGEE,PERIGEE,DECAYED
53144.0,STARLINK-4100,PAYLOAD,2024-01-13 10:46:48,15.08846042,0.000197,53.2206,103.7018,115.994,244.1255,-2.1519e-05,-6.31e-06,0.0,0 STARLINK-4100,1 53144U 22083N   24013.44917479 -.00000631  00000-0 -21519-4 0  9991,2 53144  53.2206 103.7018 0001970 115.9940 244.1255 15.08846042 83151,6917.862,95.437,541.09,538.364,0.0
53144.0,STARLINK-4100,PAYLOAD,2024-01-13 12:22:11,15.08847295,0.0001742,53.2191,103.4061,73.6265,286.4918,1.072e-05,-1.17e-06,0.0,0 STARLINK-4100,1 53144U 22083N   24013.51541522 -.00000117  00000-0  10720-4 0  9991,2 53144  53.2191 103.4061 0001742  73.6265 286.4918 15.08847295 82533,6917.858,95.437,540.928,538.518,0.0
53144.0,STARLINK-4100,PAYLOAD,2024-01-14 12:12:58,15.08841917,0.0001544,53.2201,98.9483,87.2995,272.8174,0.00010854,1.44e-05,0.0,0 STARLINK-4100,1 53144U 22083N   24014.50901617  .00001440  00000-0  10854-3 0  9992,2 53144  53.2201  98.9483 0001544  87.2995 272.8174 15.08841917 83317,6917.875,95.437,540.808,538.671,0.0
53144.0,STARLINK-4100,PAYLOAD,2024-01-15 10:28:23,15.088364,0.0001542,53.2201,94.7875,91.8072,268.3097,0.00013968,1.936e-05,0.0,0 STARLINK-4100,1 53144U 22083N   24015.43637902  .00001936  00000-0  13968-3 0  9997,2 53144  53.2201  94.7875 0001542  91.8072 268.3097 15.08836400 83451,6917.891,95.438,540.823,538.69,0.0
53144.0,STARLINK-4100,PAYLOAD,2024-01-16 10:19:10,15.08833126,0.0001564,53.2199,90.3242,91.4749,268.6422,-2.1279e-05,-6.27e-06,0.0,0 STARLINK-4100,1 53144U 22083N   24016.42998653 -.00000627  00000-0 -21279-4 0  9993,2 53144  53.2199  90.3242 0001564  91.4749 268.6422 15.08833126 83602,6917.901,95.438,540.848,538.684,0.0
53144.0,STARLINK-4100,PAYLOAD,2024-01-16 13:29:56,15.08838782,0.0001538,53.2183,89.7276,97.1095,263.0072,2.7448e-05,1.49e-06,0.0,0 STARLINK-4100,1 53144U 22083N   24016.56246097  .00000149  00000-0  27448-4 0  9997,2 53144  53.2183  89.7276 0001538  97.1095 263.0072 15.08838782 82996,6917.884,95.438,540.813,538.685,0.0
53144.0,STARLINK-4100,PAYLOAD,2024-01-16 15:05:19,15.08839041,0.0001435,53.2183,89.4299,96.0501,264.0654,3.3958e-05,2.53e-06,0.0,0 STARLINK-4100,1 53144U 22083N   24016.62870005  .00000253  00000-0  33958-4 0  9995,2 53144  53.2183  89.4299 0001435  96.0501 264.0654 15.08839041 83632,6917.883,95.438,540.741,538.756,0.0
53144.0,STARLINK-4100,PAYLOAD,2024-01-17 10:09:58,15.08835995,0.0001793,53.2193,85.862,64.0375,296.0802,7.9544e-06,-1.62e-06,0.0,0 STARLINK-4100,1 53144U 22083N   24017.42358834 -.00000162  00000-0  79544-5 0  9997,2 53144  53.2193  85.8620 0001793  64.0375 296.0802 15.08835995 83759,6917.893,95.438,540.998,538.517,0.0
53144.0,STARLINK-4100,PAYLOAD,2024-01-17 22:53:02,15.08837655,0.0001583,53.2185,83.4836,100.409,259.708,0.00013612,1.879e-05,0.0,0 STARLINK-4100,1 53144U 22083N   24017.95350245  .00001879  00000-0  13612-3 0  9990,2 53144  53.2185  83.4836 0001583 100.4090 259.7080 15.08837655 83837,6917.888,95.438,540.848,538.657,0.0
53144.0,STARLINK-4100,PAYLOAD,2024-01-18 13:11:30,15.08846611,0.0001455,53.2174,80.8062,92.068,268.0478,0.00019445,2.809e-05,0.0,0 STARLINK-4100,1 53144U 22083N   24018.54965647  .00002809  00000-0  19445-3 0  9998,2 53144  53.2174  80.8062 0001455  92.0680 268.0478 15.08846611 83292,6917.86,95.437,540.732,538.719,0.0
53144.0,STARLINK-4100,PAYLOAD,2024-01-19 03:29:59,15.08835487,0.0001656,53.2175,78.1305,96.72,263.398,7.7336e-05,9.43e-06,0.0,0 STARLINK-4100,1 53144U 22083N   24019.14582833  .00000943  00000-0  77336-4 0  9998,2 53144  53.2175  78.1305 0001656  96.7200 263.3980 15.08835487 84011,6917.894,95.438,540.905,538.614,0.0
53144.0,STARLINK-4100,PAYLOAD,2024-01-19 11:26:54,15.08846249,0.0001694,53.2178,76.6455,70.1136,290.0038,2.6649e-05,1.36e-06,0.0,0 STARLINK-4100,1 53144U 22083N   24019.47702508  .00000136  00000-0  26649-4 0  9992,2 53144  53.2178  76.6455 0001694  70.1136 290.0038 15.08846249 83433,6917.861,95.437,540.898,538.554,0.0
53144.0,STARLINK-4100,PAYLOAD,2024-01-20 09:42:19,15.0883861,0.0001576,53.2176,72.482,69.9284,290.1877,2.3548e-05,8.7e-07,0.0,0 STARLINK-4100,1 53144U 22083N   24020.40438855  .00000087  00000-0  23548-4 0  9998,2 53144  53.2176  72.4820 0001576  69.9284 290.1877 15.08838610 84201,6917.885,95.438,540.84,538.659,0.0
53144.0,STARLINK-4100,PAYLOAD,2024-01-20 12:53:04,15.08850603,0.000134,53.2169,71.8812,111.6923,248.4212,-1.2061e-06,-3.07e-06,0.0,0 STARLINK-4100,1 53144U 22083N   24020.53685827 -.00000307  00000-0 -12061-5 0  9991,2 53144  53.2169  71.8812 0001340 111.6923 248.4212 15.08850603 83597,6917.848,95.437,540.64,538.786,0.0
53144.0,STARLINK-4100,PAYLOAD,2024-01-21 03:11:33,15.08834918,0.0001277,53.2196,69.2096,114.8968,245.2157,8.4842e-05,1.062e-05,0.0,0 STARLINK-4100,1 53144U 22083N   24021.13302616  .00001062  00000-0  84842-4 0  9992,2 53144  53.2196  69.2096 0001277 114.8968 245.2157 15.08834918 84310,6917.896,95.438,540.644,538.878,0.0
53144.0,STARLINK-4100,PAYLOAD,2024-01-21 06:22:19,15.08837679,0.0001834,53.2179,68.6153,105.0852,255.0343,6.187e-05,6.97e-06,0.0,0 STARLINK-4100,1 53144U 22083N   24021.26550660  .00000697  00000-0  61870-4 0  9999,2 53144  53.2179  68.6153 0001834 105.0852 255.0343 15.08837679 83706,6917.887,95.438,541.021,538.484,0.0
53144.0,STARLINK-4100,PAYLOAD,2024-01-21 09:33:05,15.08840475,0.0001745,53.2181,68.0216,92.4437,267.6755,8.552e-05,1.073e-05,0.0,0 STARLINK-4100,1 53144U 22083N   24021.39798531  .00001073  00000-0  85520-4 0  9991,2 53144  53.2181  68.0216 0001745  92.4437 267.6755 15.08840475 83728,6917.879,95.438,540.951,538.537,0.0
53144.0,STARLINK-4100,PAYLOAD,2024-01-22 06:13:07,15.08836039,0.0001879,53.2187,64.1569,105.5617,254.5582,6.4046e-05,7.31e-06,0.0,0 STARLINK-4100,1 53144U 22083N   24022.25910883  .00000731  00000-0  64046-4 0  9993,2 53144  53.2187  64.1569 0001879 105.5617 254.5582 15.08836039 83854,6917.892,95.438,541.057,538.458,0.0
53144.0,STARLINK-4100,PAYLOAD,2024-01-22 09:23:53,15.08837045,0.00019,53.2189,63.5625,106.2344,253.8857,7.0256e-05,8.3e-06,0.0,0 STARLINK-4100,1 53144U 22083N   24022.39158831  .00000830  00000-0  70256-4 0  9995,2 53144  53.2189  63.5625 0001900 106.2344 253.8857 15.08837045 84500,6917.889,95.438,541.069,538.44,0.0
53144.0,STARLINK-4100,PAYLOAD,2024-01-23 06:03:54,15.08838376,0.0001944,53.2192,59.6972,109.3503,250.7699,6.6673e-05,7.73e-06,0.0,0 STARLINK-4100,1 53144U 22083N   24023.25270835  .00000773  00000-0  66673-4 0  9994,2 53144  53.2192  59.6972 0001944 109.3503 250.7699 15.08838376 84007,6917.885,95.438,541.095,538.406,0.0
53144.0,STARLINK-4100,PAYLOAD,2024-01-23 07:39:17,15.08829756,0.0001876,53.2196,59.3989,106.9617,253.1581,0.00021771,3.178e-05,0.0,0 STARLINK-4100,1 53144U 22083N   24023.31895068  .00003178  00000-0  21771-3 0  9993,2 53144  53.2196  59.3989 0001876 106.9617 253.1581 15.08829756 84019,6917.912,95.438,541.075,538.479,0.0
53144.0,STARLINK-4100,PAYLOAD,2024-01-24 09:05:27,15.08835139,0.0001877,53.2194,54.6423,104.7267,255.3933,2.6088e-05,1.27e-06,0.0,0 STARLINK-4100,1 53144U 22083N   24024.37879532  .00000127  00000-0  26088-4 0  9996,2 53144  53.2194  54.6423 0001877 104.7267 255.3933 15.08835139 84800,6917.895,95.438,541.059,538.462,0.0
53144.0,STARLINK-4100,PAYLOAD,2024-01-25 08:56:14,15.08840448,0.0001766,53.2187,50.1785,93.054,267.0654,9.8149e-05,1.274e-05,0.0,0 STARLINK-4100,1 53144U 22083N   24025.37239261  .00001274  00000-0  98149-4 0  9997,2 53144  53.2187  50.1785 0001766  93.0540 267.0654 15.08840448 84321,6917.879,95.438,540.966,538.522,0.0
53144.0,STARLINK-4100,PAYLOAD,2024-01-26 08:47:02,15.08810221,0.0002032,53.2193,45.7149,72.0248,288.0965,0.00044406,6.781e-05,0.0,0 STARLINK-4100,1 53144U 22083N   24026.36600431  .00006781  00000-0  44406-3 0  9992,2 53144  53.2193  45.7149 0002032  72.0248 288.0965 15.08810221 85102,6917.971,95.439,541.242,538.431,0.0
53144.0,STARLINK-4100,PAYLOAD,2024-01-27 10:13:12,15.08844383,0.000219,53.2199,40.9527,64.6265,295.4954,6.9738e-05,8.22e-06,0.0,0 STARLINK-4100,1 53144U 22083N   24027.42583609  .00000822  00000-0  69738-4 0  9993,2 53144  53.2199  40.9527 0002190  64.6265 295.4954 15.08844383 85269,6917.867,95.437,541.247,538.217,0.0
53144.0,STARLINK-4100,PAYLOAD,2024-01-28 06:53:12,15.08842139,0.0001825,53.2187,37.0944,84.405,275.715,5.7148e-05,6.22e-06,0.0,0 STARLINK-4100,1 53144U 22083N   24028.28695564  .00000622  00000-0  57148-4 0  9992,2 53144  53.2187  37.0944 0001825  84.4050 275.7150 15.08842139 84762,6917.874,95.437,541.001,538.476,0.0
53144.0,STARLINK-4100,PAYLOAD,2024-01-29 03:33:13,15.08842478,0.0001868,53.2189,33.2294,116.5407,243.5777,-1.8188e-05,-5.78e-06,0.0,0 STARLINK-4100,1 53144U 22083N   24029.14807618 -.00000578  00000-0 -18188-4 0  9996,2 53144  53.2189  33.2294 0001868 116.5407 243.5777 15.08842478 85529,6917.873,95.437,541.03,538.446,0.0
53144.0,STARLINK-4100,PAYLOAD,2024-01-29 09:54:46,15.08847107,0.0001652,53.2184,32.0377,105.4752,254.6423,8.0021e-07,-2.75e-06,0.0,0 STARLINK-4100,1 53144U 22083N   24029.41303244 -.00000275  00000-0  80021-6 0  9992,2 53144  53.2184  32.0377 0001652 105.4752 254.6423 15.08847107 84933,6917.859,95.437,540.866,538.581,0.0
53144.0,STARLINK-4100,PAYLOAD,2024-01-30 06:34:48,15.08784253,0.0001857,53.2185,28.1695,96.2093,263.9111,0.00078502,0.00012209,0.0,0 STARLINK-4100,1 53144U 22083N   24030.27416888  .00012209  00000-0  78502-3 0  9994,2 53144  53.2185  28.1695 0001857  96.2093 263.9111 15.08784253 85698,6918.051,95.441,541.2,538.631,0.0
53144.0,STARLINK-4100,PAYLOAD,2024-01-31 03:14:47,15.0884287,0.0001782,53.2189,24.3052,114.0178,246.1001,2.3716e-05,8.9e-07,0.0,0 STARLINK-4100,1 53144U 22083N   24031.13527441  .00000089  00000-0  23716-4 0  9999,2 53144  53.2189  24.3052 0001782 114.0178 246.1001 15.08842870 85823,6917.872,95.437,540.969,538.504,0.0
